[
  {
    "CCSDS_OMM_VERS": "3.0",
    "COMMENT": "GENERATED VIA SPACE-TRACK.ORG API",
    "CREATION_DATE": "2026-02-19T17:59:09",
    "ORIGINATOR": "18 SPCS",
    "OBJECT_NAME": "CZ-6A DEB",
    "OBJECT_ID": "2024-140WY",
    "CENTER_NAME": "EARTH",
    "REF_FRAME": "TEME",
    "TIME_SYSTEM": "UTC",
    "MEAN_ELEMENT_THEORY": "SGP4",
    "EPOCH": "2026-02-19T15:13:09.063552",
    "MEAN_MOTION": "14.10972232",
    "ECCENTRICITY": "0.00940452",
    "INCLINATION": "88.9930",
    "RA_OF_ASC_NODE": "288.6828",
    "ARG_OF_PERICENTER": "244.5628",
    "MEAN_ANOMALY": "114.5803",
    "EPHEMERIS_TYPE": "0",
    "CLASSIFICATION_TYPE": "U",
    "NORAD_CAT_ID": "61383",
    "ELEMENT_SET_NO": "999",
    "REV_AT_EPOCH": "7501",
    "BSTAR": "0.00067921085000",
    "MEAN_MOTION_DOT": "0.00001283",
    "MEAN_MOTION_DDOT": "0.0000000000000",
    "SEMIMAJOR_AXIS": "7234.184",
    "PERIOD": "102.057",
    "APOAPSIS": "924.083",
    "PERIAPSIS": "788.015",
    "OBJECT_TYPE": "DEBRIS",
    "RCS_SIZE": "SMALL",
    "COUNTRY_CODE": "PRC",
    "LAUNCH_DATE": "2024-08-06",
    "SITE": "TSC",
    "DECAY_DATE": null,
    "FILE": "5039972",
    "GP_ID": "313181530",
    "TLE_LINE0": "0 CZ-6A DEB",
    "TLE_LINE1": "1 61383U 24140WY  26050.63413268  .00001283  00000-0  67921-3 0  9990",
    "TLE_LINE2": "2 61383  88.9930 288.6828 0094045 244.5628 114.5803 14.10972232 75011"
  },
  {
    "CCSDS_OMM_VERS": "3.0",
    "COMMENT": "GENERATED VIA SPACE-TRACK.ORG API",
    "CREATION_DATE": "2026-02-19T17:59:09",
    "ORIGINATOR": "18 SPCS",
    "OBJECT_NAME": "SL-8 DEB",
    "OBJECT_ID": "1970-102E",
    "CENTER_NAME": "EARTH",
    "REF_FRAME": "TEME",
    "TIME_SYSTEM": "UTC",
    "MEAN_ELEMENT_THEORY": "SGP4",
    "EPOCH": "2026-02-19T15:13:08.157216",
    "MEAN_MOTION": "13.86796310",
    "ECCENTRICITY": "0.00213463",
    "INCLINATION": "74.0367",
    "RA_OF_ASC_NODE": "132.4038",
    "ARG_OF_PERICENTER": "36.7381",
    "MEAN_ANOMALY": "34.3557",
    "EPHEMERIS_TYPE": "0",
    "CLASSIFICATION_TYPE": "U",
    "NORAD_CAT_ID": "8764",
    "ELEMENT_SET_NO": "999",
    "REV_AT_EPOCH": "78579",
    "BSTAR": "0.00021243901000",
    "MEAN_MOTION_DOT": "0.00000225",
    "MEAN_MOTION_DDOT": "0.0000000000000",
    "SEMIMAJOR_AXIS": "7318.017",
    "PERIOD": "103.836",
    "APOAPSIS": "955.503",
    "PERIAPSIS": "924.260",
    "OBJECT_TYPE": "DEBRIS",
    "RCS_SIZE": "SMALL",
    "COUNTRY_CODE": "CIS",
    "LAUNCH_DATE": "1970-12-02",
    "SITE": "PKMTR",
    "DECAY_DATE": null,
    "FILE": "5039972",
    "GP_ID": "313156987",
    "TLE_LINE0": "0 SL-8 DEB",
    "TLE_LINE1": "1 08764U 70102E   26050.63412219  .00000225  00000-0  21244-3 0  9991",
    "TLE_LINE2": "2 08764  74.0367 132.4038 0021346  36.7381  34.3557 13.86796310785796"
  },
  {
    "CCSDS_OMM_VERS": "3.0",
    "COMMENT": "GENERATED VIA SPACE-TRACK.ORG API",
    "CREATION_DATE": "2026-02-19T17:59:09",
    "ORIGINATOR": "18 SPCS",
    "OBJECT_NAME": "CZ-6A DEB",
    "OBJECT_ID": "2024-140HF",
    "CENTER_NAME": "EARTH",
    "REF_FRAME": "TEME",
    "TIME_SYSTEM": "UTC",
    "MEAN_ELEMENT_THEORY": "SGP4",
    "EPOCH": "2026-02-19T15:13:07.974912",
    "MEAN_MOTION": "14.42301351",
    "ECCENTRICITY": "0.00846322",
    "INCLINATION": "89.0729",
    "RA_OF_ASC_NODE": "290.6906",
    "ARG_OF_PERICENTER": "11.2027",
    "MEAN_ANOMALY": "349.1033",
    "EPHEMERIS_TYPE": "0",
    "CLASSIFICATION_TYPE": "U",
    "NORAD_CAT_ID": "60828",
    "ELEMENT_SET_NO": "999",
    "REV_AT_EPOCH": "8001",
    "BSTAR": "0.00022056981000",
    "MEAN_MOTION_DOT": "0.00000775",
    "MEAN_MOTION_DDOT": "0.0000000000000",
    "SEMIMAJOR_AXIS": "7129.042",
    "PERIOD": "99.840",
    "APOAPSIS": "811.242",
    "PERIAPSIS": "690.572",
    "OBJECT_TYPE": "DEBRIS",
    "RCS_SIZE": "SMALL",
    "COUNTRY_CODE": "PRC",
    "LAUNCH_DATE": "2024-08-06",
    "SITE": "TSC",
    "DECAY_DATE": null,
    "FILE": "5039972",
    "GP_ID": "313181807",
    "TLE_LINE0": "0 CZ-6A DEB",
    "TLE_LINE1": "1 60828U 24140HF  26050.63412008  .00000775  00000-0  22057-3 0  9990",
    "TLE_LINE2": "2 60828  89.0729 290.6906 0084632  11.2027 349.1033 14.42301351 80015"
  },
  {
    "CCSDS_OMM_VERS": "3.0",
    "COMMENT": "GENERATED VIA SPACE-TRACK.ORG API",
    "CREATION_DATE": "2026-02-19T17:59:09",
    "ORIGINATOR": "18 SPCS",
    "OBJECT_NAME": "SL-8 DEB",
    "OBJECT_ID": "1991-009AR",
    "CENTER_NAME": "EARTH",
    "REF_FRAME": "TEME",
    "TIME_SYSTEM": "UTC",
    "MEAN_ELEMENT_THEORY": "SGP4",
    "EPOCH": "2026-02-19T15:13:03.258336",
    "MEAN_MOTION": "12.16337631",
    "ECCENTRICITY": "0.01403990",
    "INCLINATION": "74.0974",
    "RA_OF_ASC_NODE": "142.7165",
    "ARG_OF_PERICENTER": "148.5507",
    "MEAN_ANOMALY": "280.9238",
    "EPHEMERIS_TYPE": "0",
    "CLASSIFICATION_TYPE": "U",
    "NORAD_CAT_ID": "21178",
    "ELEMENT_SET_NO": "999",
    "REV_AT_EPOCH": "55506",
    "BSTAR": "0.00146843900000",
    "MEAN_MOTION_DOT": "0.00000136",
    "MEAN_MOTION_DDOT": "0.0000000000000",
    "SEMIMAJOR_AXIS": "7986.670",
    "PERIOD": "118.388",
    "APOAPSIS": "1720.667",
    "PERIAPSIS": "1496.403",
    "OBJECT_TYPE": "DEBRIS",
    "RCS_SIZE": "MEDIUM",
    "COUNTRY_CODE": "CIS",
    "LAUNCH_DATE": "1991-02-12",
    "SITE": "PKMTR",
    "DECAY_DATE": null,
    "FILE": "5039972",
    "GP_ID": "313161084",
    "TLE_LINE0": "0 SL-8 DEB",
    "TLE_LINE1": "1 21178U 91009AR  26050.63406549  .00000136  00000-0  14684-2 0  9993",
    "TLE_LINE2": "2 21178  74.0974 142.7165 0140399 148.5507 280.9238 12.16337631555060"
  },
  {
    "CCSDS_OMM_VERS": "3.0",
    "COMMENT": "GENERATED VIA SPACE-TRACK.ORG API",
    "CREATION_DATE": "2026-02-19T17:59:09",
    "ORIGINATOR": "18 SPCS",
    "OBJECT_NAME": "SL-24 DEB",
    "OBJECT_ID": "2007-028C",
    "CENTER_NAME": "EARTH",
    "REF_FRAME": "TEME",
    "TIME_SYSTEM": "UTC",
    "MEAN_ELEMENT_THEORY": "SGP4",
    "EPOCH": "2026-02-19T15:12:55.071072",
    "MEAN_MOTION": "13.26374562",
    "ECCENTRICITY": "0.08148957",
    "INCLINATION": "64.5282",
    "RA_OF_ASC_NODE": "279.1853",
    "ARG_OF_PERICENTER": "104.7316",
    "MEAN_ANOMALY": "264.5388",
    "EPHEMERIS_TYPE": "0",
    "CLASSIFICATION_TYPE": "U",
    "NORAD_CAT_ID": "31791",
    "ELEMENT_SET_NO": "999",
    "REV_AT_EPOCH": "90241",
    "BSTAR": "0.00008000087300",
    "MEAN_MOTION_DOT": "0.00000127",
    "MEAN_MOTION_DDOT": "0.0000000000000",
    "SEMIMAJOR_AXIS": "7538.606",
    "PERIOD": "108.567",
    "APOAPSIS": "1774.789",
    "PERIAPSIS": "546.153",
    "OBJECT_TYPE": "DEBRIS",
    "RCS_SIZE": "LARGE",
    "COUNTRY_CODE": "CIS",
    "LAUNCH_DATE": "2007-06-28",
    "SITE": "OREN",
    "DECAY_DATE": null,
    "FILE": "5039972",
    "GP_ID": "313164890",
    "TLE_LINE0": "0 SL-24 DEB",
    "TLE_LINE1": "1 31791U 07028C   26050.63397073  .00000127  00000-0  80001-4 0  9992",
    "TLE_LINE2": "2 31791  64.5282 279.1853 0814896 104.7316 264.5388 13.26374562902414"
  },
  {
    "CCSDS_OMM_VERS": "3.0",
    "COMMENT": "GENERATED VIA SPACE-TRACK.ORG API",
    "CREATION_DATE": "2026-02-19T17:59:09",
    "ORIGINATOR": "18 SPCS",
    "OBJECT_NAME": "CZ-6A DEB",
    "OBJECT_ID": "2024-140BQ",
    "CENTER_NAME": "EARTH",
    "REF_FRAME": "TEME",
    "TIME_SYSTEM": "UTC",
    "MEAN_ELEMENT_THEORY": "SGP4",
    "EPOCH": "2026-02-19T15:12:34.809408",
    "MEAN_MOTION": "14.16571875",
    "ECCENTRICITY": "0.00569366",
    "INCLINATION": "89.1028",
    "RA_OF_ASC_NODE": "295.0084",
    "ARG_OF_PERICENTER": "227.2022",
    "MEAN_ANOMALY": "132.4372",
    "EPHEMERIS_TYPE": "0",
    "CLASSIFICATION_TYPE": "U",
    "NORAD_CAT_ID": "60663",
    "ELEMENT_SET_NO": "999",
    "REV_AT_EPOCH": "7922",
    "BSTAR": "0.00015888877000",
    "MEAN_MOTION_DOT": "0.00000335",
    "MEAN_MOTION_DDOT": "0.0000000000000",
    "SEMIMAJOR_AXIS": "7215.107",
    "PERIOD": "101.654",
    "APOAPSIS": "878.052",
    "PERIAPSIS": "795.891",
    "OBJECT_TYPE": "DEBRIS",
    "RCS_SIZE": "MEDIUM",
    "COUNTRY_CODE": "PRC",
    "LAUNCH_DATE": "2024-08-06",
    "SITE": "TSC",
    "DECAY_DATE": null,
    "FILE": "5039972",
    "GP_ID": "313181236",
    "TLE_LINE0": "0 CZ-6A DEB",
    "TLE_LINE1": "1 60663U 24140BQ  26050.63373622  .00000335  00000-0  15889-3 0  9992",
    "TLE_LINE2": "2 60663  89.1028 295.0084 0056937 227.2022 132.4372 14.16571875 79223"
  },
  {
    "CCSDS_OMM_VERS": "3.0",
    "COMMENT": "GENERATED VIA SPACE-TRACK.ORG API",
    "CREATION_DATE": "2026-02-19T17:59:09",
    "ORIGINATOR": "18 SPCS",
    "OBJECT_NAME": "CZ-6A DEB",
    "OBJECT_ID": "2024-140Y",
    "CENTER_NAME": "EARTH",
    "REF_FRAME": "TEME",
    "TIME_SYSTEM": "UTC",
    "MEAN_ELEMENT_THEORY": "SGP4",
    "EPOCH": "2026-02-19T15:12:31.703328",
    "MEAN_MOTION": "14.54906939",
    "ECCENTRICITY": "0.01051615",
    "INCLINATION": "89.0135",
    "RA_OF_ASC_NODE": "285.5008",
    "ARG_OF_PERICENTER": "312.0140",
    "MEAN_ANOMALY": "47.2150",
    "EPHEMERIS_TYPE": "0",
    "CLASSIFICATION_TYPE": "U",
    "NORAD_CAT_ID": "60623",
    "ELEMENT_SET_NO": "999",
    "REV_AT_EPOCH": "8128",
    "BSTAR": "0.00039144452000",
    "MEAN_MOTION_DOT": "0.00001827",
    "MEAN_MOTION_DDOT": "0.0000000000000",
    "SEMIMAJOR_AXIS": "7087.804",
    "PERIOD": "98.975",
    "APOAPSIS": "784.205",
    "PERIAPSIS": "635.133",
    "OBJECT_TYPE": "DEBRIS",
    "RCS_SIZE": "MEDIUM",
    "COUNTRY_CODE": "PRC",
    "LAUNCH_DATE": "2024-08-06",
    "SITE": "TSC",
    "DECAY_DATE": null,
    "FILE": "5039972",
    "GP_ID": "313181718",
    "TLE_LINE0": "0 CZ-6A DEB",
    "TLE_LINE1": "1 60623U 24140Y   26050.63370027  .00001827  00000-0  39144-3 0  9991",
    "TLE_LINE2": "2 60623  89.0135 285.5008 0105162 312.0140  47.2150 14.54906939 81287"
  }
]